COSMOS 2433 (720)       
1 32275C 07052A   23025.99979167  .00000000  00000-0  00000-0 0   252
2 32275  66.0654 357.2827 0004641 273.0303  77.9873  2.13103857    17
COSMOS 2432 (719)       
1 32276C 07052B   23025.99979167  .00000000  00000-0  00000-0 0   253
2 32276  66.0793 357.3874 0012178 321.9909 336.7008  2.13103197    17
COSMOS 2434 (721)       
1 32393C 07065A   23025.99979167  .00000000  00000-0  00000-0 0   257
2 32393  64.3542 233.8368 0005117  75.1293 166.2322  2.13103077    17
COSMOS 2436 (723)       
1 32395C 07065C   23025.99979167  .00000000  00000-0  00000-0 0   259
2 32395  64.3629 233.8961 0016970   8.5813   8.4541  2.13102691    12
COSMOS 2456 (730)       
1 36111C 09070A   23025.99979167 -.00000000  00000-0  00000-0 0   258
2 36111  64.4147 113.4100 0003834 297.1278 106.6508  2.13099049    18
COSMOS 2457 (733)       
1 36112C 09070B   23025.99979167 -.00000000  00000-0  00000-0 0   259
2 36112  64.3983 113.2805 0005355 175.1933 357.6427  2.13101117    17
COSMOS 2460 (732)       
1 36402C 10007C   23025.99979167  .00000000  00000-0  00000-0 0   252
2 36402  65.9327 356.0351 0002628 309.3723 209.3377  2.13106069    17
COSMOS 2476 (744)       
1 37867C 11064A   23025.99979167 -.00000000  00000-0  00000-0 0   253
2 37867  64.6993 114.8525 0022876 235.7617  75.4346  2.13101765    18
COSMOS 2477 (745)       
1 37868C 11064B   23025.99979167 -.00000000  00000-0  00000-0 0   254
2 37868  64.7068 114.9197 0020194 236.3104 252.8790  2.13101487    13
COSMOS 2475 (743)       
1 37869C 11064C   23025.99979167 -.00000000  00000-0  00000-0 0   255
2 37869  64.7140 114.9299 0024370 253.0998 194.3223  2.13101693    15
COSMOS 2485 (747)       
1 39155C 13019A   23025.99979167 -.00000000  00000-0  00000-0 0   257
2 39155  64.8615 115.3288 0023268 231.8090 123.7683  2.13101790    12
COSMOS 2492 (754)       
1 39620C 14012A   23025.99979167  .00000000  00000-0  00000-0 0   257
2 39620  65.8178 355.6851 0015261 319.3320  70.5617  2.13102980    19
COSMOS 2500 (755)       
1 40001C 14032A   23025.99979167  .00000000  00000-0  00000-0 0   254
2 40001  65.7567 355.5295 0006289 226.5858  21.3400  2.13102306    17
COSMOS 2501 (702K)      
1 40315C 14075A   23025.99979167  .00000000  00000-0  00000-0 0   259
2 40315  63.6592 233.3852 0017008 204.3472 212.6537  2.13101206    13
COSMOS 2514 (751)       
1 41330C 16008A   23025.99979167  .00000000  00000-0  00000-0 0   255
2 41330  65.5554 355.1661 0010367 226.8018 205.3520  2.13102532    11
COSMOS 2522 (752)       
1 42939C 17055A   23025.99979167  .00000000  00000-0  00000-0 0   254
2 42939  64.1193 234.1843 0004968 237.2659 315.3380  2.13101928    10
COSMOS 2527 (756)       
1 43508C 18053A   23025.99979167 -.00000000  00000-0  00000-0 0   257
2 43508  65.0237 115.3753 0009098 229.5672 355.0085  2.13102327    17
COSMOS 2529 (757)       
1 43687C 18086A   23025.99979167  .00000000  00000-0  00000-0 0   250
2 43687  64.3344 234.5604 0006871 272.3431 235.7390  2.13101959    13
COSMOS 2534 (758)       
1 44299C 19030A   23025.99979167  .00000000  00000-0  00000-0 0   250
2 44299  64.4067 234.4661 0010012 295.9131 346.5308  2.13101851    19
COSMOS 2544 (759)       
1 44850C 19088A   23025.99979167 -.00000000  00000-0  00000-0 0   257
2 44850  65.0093 115.2228 0013414 255.5349  12.3186  2.13102152    12
COSMOS 2545 (760)       
1 45358C 20018A   23025.99979167  .00000000  00000-0  00000-0 0   255
2 45358  64.8949 355.5919 0010721 259.3944 217.6732  2.13102417    11
COSMOS 2547 (705K)      
1 46805C 20075A   23025.99979167  .00000000  00000-0  00000-0 0   256
2 46805  64.6325 233.9564 0005167 241.4784  89.4104  2.13102873    16
COSMOS 2557 (706K)      
1 52984C 20075A   23025.99979167  .00000000  00000-0  00000-0 0   251
2 52984  64.8032 357.7754 0013879 285.3165 282.4857  2.13101680    18
COSMOS 2559 (707K)      
1 54031C 22130A   23025.99979167  .00000000  00000-0  00000-0 0   250
2 54031  64.7740 357.9109 0006681 239.5805  13.4397  2.13100935    12
COSMOS 2564 (761)       
1 54377C 22161A   23025.99979167  .00000000  00000-0  00000-0 0   257
2 54377  64.7728 233.9695 0006581 210.3639 252.9834  2.13102081    15
